1 35870U 09049F   10032.08790291  .00000402  00000-0  20088-4 0  9995
2 35870 097.3527 084.4659 0011508 167.4837 276.3392 15.22855472 20752
1 35870U 09049F   10032.48635300  .00000433  00000-0  21444-4 0  9999
2 35870 097.3525 084.8560 0011505 166.1189 300.7196 15.22856092 20818
1 35870U 09049F   10032.75546671  .00000489  00000-0  23799-4 0  9997
2 35870 097.3524 085.1191 0011624 164.9269 336.3259 15.22856762 20851
1 35870U 09049F   10032.94950351 +.00000489 +00000-0 +23816-4 0  9992
2 35870 097.3524 085.3091 0011638 164.1960 320.1396 15.22856979020883
1 35870U 09049F   10033.13818759  .00000520  00000-0  25136-4 0  9992
2 35870 097.3523 085.4937 0011635 163.6790 274.4148 15.22857445 20913
1 35870U 09049F   10033.40995419  .00000532  00000-0  25656-4 0  9991
2 35870 097.3524 085.7598 0011642 162.7244 324.3173 15.22857865 20955
1 35870U 09049F   10033.80020133  .00000525  00000-0  25334-4 0  9992
2 35870 097.3522 086.1416 0011666 161.3102 303.8066 15.22858265 21017
1 35870U 09049F   10034.18128022  .00000577  00000-0  27568-4 0  9998
2 35870 097.3521 086.5147 0011646 160.0055 232.9580 15.22859062 21077
1 35870U 09049F   10034.46080876  .00000588  00000-0  28044-4 0  9995
2 35870 097.3519 086.7883 0011672 159.0581 325.3802 15.22859480 21117
1 35870U 09049F   10034.66190860  .00000570  00000-0  27253-4 0  9994
2 35870 097.3517 086.9850 0011676 158.3893 347.8296 15.22859600 21146
1 35870U 09049F   10034.92092711 +.00000532 +00000-0 +25659-4 0  9995
2 35870 097.3517 087.2385 0011701 157.5139 327.8084 15.22859605021188
1 35870U 09049F   10035.17440416  .00000595  00000-0  28322-4 0  9991
2 35870 097.3516 087.4866 0011700 156.6236 277.4455 15.22860347 21222
1 35870U 09049F   10035.43416792  .00000585  00000-0  27895-4 0  9993
2 35870 097.3514 087.7408 0011711 155.7510 261.5067 15.22860615 21267
1 35870U 09049F   10035.83824769  .00000502  00000-0  24386-4 0  9995
2 35870 097.3514 088.1362 0011716 154.5319 316.5865 15.22860428 21326
1 35870U 09049F   10035.94938657  .00000491  00000-0  23879-4 0  9992
2 35870 097.3515 088.2449 0011708 154.2742 205.7498 15.22860492 21335
1 35870U 09049F   10036.15267991  .00000525  00000-0  25368-4 0  9995
2 35870 097.3513 088.4439 0011730 153.6979 240.1278 15.22861002 21375
1 35870U 09049F   10036.43222086  .00000502  00000-0  24367-4 0  9995
2 35870 097.3514 088.7177 0011773 152.7286 332.6420 15.22861228 21417
1 35870U 09049F   10036.76311801  .00000494  00000-0  24007-4 0  9996
2 35870 097.3513 089.0415 0011812 151.5525 346.7332 15.22861597 21464
1 35870U 09049F   10037.14855851  .00000514  00000-0  24860-4 0  9997
2 35870 097.3512 089.4187 0011833 150.3559 299.6774 15.22862208 21523
1 35870U 09049F   10037.42916667  .00000497  00000-0  24135-4 0  9996
2 35870 097.3513 089.6935 0011860 149.2577 038.1687 15.22862473 21561
1 35870U 09049F   10037.80968191  .00000482  00000-0  23490-4 0  9994
2 35870 097.3511 090.0659 0011955 147.9686 324.2213 15.22862821 21627
1 35870U 09049F   10037.93961229 +.00000494 +00000-0 +24019-4 0  9994
2 35870 097.3512 090.1931 0011977 147.5010 316.5507 15.22863037021645